{"type": "FeatureCollection", "features": [ {"type": "Feature", "properties": {"norad_id": 37687, "name": "FENGYUN 1C DEB", "group": "fengyun-1c-debris", "lat": -39.87817633020362, "lon": 34.47242707043283, "alt_km": 722.6767093969947, "timestamp": "2025-12-19T04:59:48.595314+00:00", "meta": {"OBJECT_NAME": "FENGYUN 1C DEB", "OBJECT_ID": "1999-025ELC", "EPOCH": "2025-12-14T21:46:20.279424", "MEAN_MOTION": 13.85346082, "ECCENTRICITY": 0.03333739, "INCLINATION": 98.2067, "RA_OF_ASC_NODE": 23.7727, "ARG_OF_PERICENTER": 352.7982, "MEAN_ANOMALY": 129.6123, "EPHEMERIS_TYPE": 0, "CLASSIFICATION_TYPE": "U", "NORAD_CAT_ID": 37687, "ELEMENT_SET_NO": 999, "REV_AT_EPOCH": 83284, "BSTAR": 0.0025058041, "MEAN_MOTION_DOT": 4.365e-05, "MEAN_MOTION_DDOT": 0}, "tle": {"line1": "1 37687U 99025ELC 25348.90717916  .00004365  00000+0  25058-2 0  9997", "line2": "2 37687  98.2067  23.7727 0333373 352.7982 129.6123 13.85346082832840"}}, "geometry": {"type": "Point", "coordinates": [34.47242707043283, -39.87817633020362]}}, {"type": "Feature", "properties": {"norad_id": 37689, "name": "FENGYUN 1C DEB", "group": "fengyun-1c-debris", "lat": 21.930920422030546, "lon": 30.865672444928723, "alt_km": 743.5631271133561, "timestamp": "2025-12-19T04:59:48.595324+00:00", "meta": {"OBJECT_NAME": "FENGYUN 1C DEB", "OBJECT_ID": "1999-025ELE", "EPOCH": "2025-12-16T22:11:39.439392", "MEAN_MOTION": 14.48718217, "ECCENTRICITY": 0.00208957, "INCLINATION": 98.9198, "RA_OF_ASC_NODE": 32.0803, "ARG_OF_PERICENTER": 227.3129, "MEAN_ANOMALY": 132.6303, "EPHEMERIS_TYPE": 0, "CLASSIFICATION_TYPE": "U", "NORAD_CAT_ID": 37689, "ELEMENT_SET_NO": 999, "REV_AT_EPOCH": 57873, "BSTAR": 0.0018942734, "MEAN_MOTION_DOT": 7.118e-05, "MEAN_MOTION_DDOT": 0}, "tle": {"line1": "1 37689U 99025ELE 25350.92476203  .00007118  00000+0  18943-2 0  9999", "line2": "2 37689  98.9198  32.0803 0020895 227.3129 132.6303 14.48718217578736"}}, "geometry": {"type": "Point", "coordinates": [30.865672444928723, 21.930920422030546]}}, {"type": "Feature", "properties": {"norad_id": 37691, "name": "FENGYUN 1C DEB", "group": "fengyun-1c-debris", "lat": -36.246304018835545, "lon": -96.86103726531792, "alt_km": 899.4668286786864, "timestamp": "2025-12-19T04:59:48.595335+00:00", "meta": {"OBJECT_NAME": "FENGYUN 1C DEB", "OBJECT_ID": "1999-025ELG", "EPOCH": "2025-12-18T12:41:57.946560", "MEAN_MOTION": 14.5778063, "ECCENTRICITY": 0.02804592, "INCLINATION": 98.373, "RA_OF_ASC_NODE": 256.256, "ARG_OF_PERICENTER": 132.1144, "MEAN_ANOMALY": 230.4266, "EPHEMERIS_TYPE": 0, "CLASSIFICATION_TYPE": "U", "NORAD_CAT_ID": 37691, "ELEMENT_SET_NO": 999, "REV_AT_EPOCH": 85718, "BSTAR": 0.0012070229, "MEAN_MOTION_DOT": 9.478e-05, "MEAN_MOTION_DDOT": 0}, "tle": {"line1": "1 37691U 99025ELG 25352.52914290  .00009478  00000+0  12070-2 0  9999", "line2": "2 37691  98.3730 256.2560 0280459 132.1144 230.4266 14.57780630857181"}}, "geometry": {"type": "Point", "coordinates": [-96.86103726531792, -36.246304018835545]}}, {"type": "Feature", "properties": {"norad_id": 37693, "name": "FENGYUN 1C DEB", "group": "fengyun-1c-debris", "lat": -33.19599850104274, "lon": -1.4835970987705258, "alt_km": 870.4340082517374, "timestamp": "2025-12-19T04:59:48.595345+00:00", "meta": {"OBJECT_NAME": "FENGYUN 1C DEB", "OBJECT_ID": "1999-025ELJ", "EPOCH": "2025-12-16T18:19:01.844256", "MEAN_MOTION": 14.08494893, "ECCENTRICITY": 0.00726586, "INCLINATION": 98.6941, "RA_OF_ASC_NODE": 350.4139, "ARG_OF_PERICENTER": 63.6223, "MEAN_ANOMALY": 113.0699, "EPHEMERIS_TYPE": 0, "CLASSIFICATION_TYPE": "U", "NORAD_CAT_ID": 37693, "ELEMENT_SET_NO": 999, "REV_AT_EPOCH": 62205, "BSTAR": 0.00066899007, "MEAN_MOTION_DOT": 1.134e-05, "MEAN_MOTION_DDOT": 0}, "tle": {"line1": "1 37693U 99025ELJ 25350.76321579  .00001134  00000+0  66899-3 0  9997", "line2": "2 37693  98.6941 350.4139 0072658  63.6223 113.0699 14.08494893622056"}}, "geometry": {"type": "Point", "coordinates": [-1.4835970987705258, -33.19599850104274]}}, {"type": "Feature", "properties": {"norad_id": 37694, "name": "FENGYUN 1C DEB", "group": "fengyun-1c-debris", "lat": -66.44063521182548, "lon": -138.99166647304776, "alt_km": 949.1690366307585, "timestamp": "2025-12-19T04:59:48.595355+00:00", "meta": {"OBJECT_NAME": "FENGYUN 1C DEB", "OBJECT_ID": "1999-025ELK", "EPOCH": "2025-12-14T10:20:27.757248", "MEAN_MOTION": 14.16668534, "ECCENTRICITY": 0.01472645, "INCLINATION": 98.1988, "RA_OF_ASC_NODE": 55.9107, "ARG_OF_PERICENTER": 88.6122, "MEAN_ANOMALY": 288.1431, "EPHEMERIS_TYPE": 0, "CLASSIFICATION_TYPE": "U", "NORAD_CAT_ID": 37694, "ELEMENT_SET_NO": 999, "REV_AT_EPOCH": 51728, "BSTAR": 0.0018272074, "MEAN_MOTION_DOT": 4.021e-05, "MEAN_MOTION_DDOT": 0}, "tle": {"line1": "1 37694U 99025ELK 25348.43087682  .00004021  00000+0  18272-2 0  9992", "line2": "2 37694  98.1988  55.9107 0147264  88.6122 288.1431 14.16668534517286"}}, "geometry": {"type": "Point", "coordinates": [-138.99166647304776, -66.44063521182548]}}, {"type": "Feature", "properties": {"norad_id": 37695, "name": "FENGYUN 1C DEB", "group": "fengyun-1c-debris", "lat": 28.53287038738503, "lon": 31.056498245651078, "alt_km": 1294.099626242415, "timestamp": "2025-12-19T04:59:48.595366+00:00", "meta": {"OBJECT_NAME": "FENGYUN 1C DEB", "OBJECT_ID": "1999-025ELL", "EPOCH": "2025-12-15T20:50:38.916672", "MEAN_MOTION": 13.64992638, "ECCENTRICITY": 0.04654766, "INCLINATION": 98.2113, "RA_OF_ASC_NODE": 32.72, "ARG_OF_PERICENTER": 252.5094, "MEAN_ANOMALY": 291.0319, "EPHEMERIS_TYPE": 0, "CLASSIFICATION_TYPE": "U", "NORAD_CAT_ID": 37695, "ELEMENT_SET_NO": 999, "REV_AT_EPOCH": 89294, "BSTAR": 0.00074996206, "MEAN_MOTION_DOT": 1.237e-05, "MEAN_MOTION_DDOT": 0}, "tle": {"line1": "1 37695U 99025ELL 25349.86850598  .00001237  00000+0  74996-3 0  9997", "line2": "2 37695  98.2113  32.7200 0465476 252.5094 291.0319 13.64992638892947"}}, "geometry": {"type": "Point", "coordinates": [31.056498245651078, 28.53287038738503]}}, {"type": "Feature", "properties": {"norad_id": 37704, "name": "FENGYUN 1C DEB", "group": "fengyun-1c-debris", "lat": 58.371819608848185, "lon": 19.23471224110314, "alt_km": 856.5708866889263, "timestamp": "2025-12-19T04:59:48.595376+00:00", "meta": {"OBJECT_NAME": "FENGYUN 1C DEB", "OBJECT_ID": "1999-025ELV", "EPOCH": "2025-12-10T18:58:47.253216", "MEAN_MOTION": 13.70500661, "ECCENTRICITY": 0.02401356, "INCLINATION": 98.3199, "RA_OF_ASC_NODE": 178.1952, "ARG_OF_PERICENTER": 184.1814, "MEAN_ANOMALY": 190.5574, "EPHEMERIS_TYPE": 0, "CLASSIFICATION_TYPE": "U", "NORAD_CAT_ID": 37704, "ELEMENT_SET_NO": 999, "REV_AT_EPOCH": 62338, "BSTAR": 0.0019314833, "MEAN_MOTION_DOT": 2.062e-05, "MEAN_MOTION_DDOT": 0}, "tle": {"line1": "1 37704U 99025ELV 25344.79082469  .00002062  00000+0  19315-2 0  9999", "line2": "2 37704  98.3199 178.1952 0240135 184.1814 190.5574 13.70500661623389"}}, "geometry": {"type": "Point", "coordinates": [19.23471224110314, 58.371819608848185]}}, {"type": "Feature", "properties": {"norad_id": 37707, "name": "FENGYUN 1C DEB", "group": "fengyun-1c-debris", "lat": 63.99239467282956, "lon": -23.053605999828076, "alt_km": 644.687976809173, "timestamp": "2025-12-19T04:59:48.595387+00:00", "meta": {"OBJECT_NAME": "FENGYUN 1C DEB", "OBJECT_ID": "1999-025ELY", "EPOCH": "2025-12-17T06:35:19.530240", "MEAN_MOTION": 14.56477467, "ECCENTRICITY": 0.01433735, "INCLINATION": 100.2206, "RA_OF_ASC_NODE": 356.2824, "ARG_OF_PERICENTER": 12.733, "MEAN_ANOMALY": 358.6114, "EPHEMERIS_TYPE": 0, "CLASSIFICATION_TYPE": "U", "NORAD_CAT_ID": 37707, "ELEMENT_SET_NO": 999, "REV_AT_EPOCH": 85632, "BSTAR": 0.00056858098, "MEAN_MOTION_DOT": 2.832e-05, "MEAN_MOTION_DDOT": 0}, "tle": {"line1": "1 37707U 99025ELY 25351.27453160  .00002832  00000+0  56858-3 0  9992", "line2": "2 37707 100.2206 356.2824 0143373  12.7330 358.6114 14.56477467856327"}}, "geometry": {"type": "Point", "coordinates": [-23.053605999828076, 63.99239467282956]}}, {"type": "Feature", "properties": {"norad_id": 37712, "name": "FENGYUN 1C DEB", "group": "fengyun-1c-debris", "lat": 12.910588205265263, "lon": -45.58529827545844, "alt_km": 826.6153927234254, "timestamp": "2025-12-19T04:59:48.595397+00:00", "meta": {"OBJECT_NAME": "FENGYUN 1C DEB", "OBJECT_ID": "1999-025EMD", "EPOCH": "2025-12-14T15:36:31.768416", "MEAN_MOTION": 14.36434035, "ECCENTRICITY": 0.0079125, "INCLINATION": 98.8182, "RA_OF_ASC_NODE": 127.7109, "ARG_OF_PERICENTER": 347.949, "MEAN_ANOMALY": 23.1022, "EPHEMERIS_TYPE": 0, "CLASSIFICATION_TYPE": "U", "NORAD_CAT_ID": 37712, "ELEMENT_SET_NO": 999, "REV_AT_EPOCH": 63988, "BSTAR": 0.00047842497, "MEAN_MOTION_DOT": 1.406e-05, "MEAN_MOTION_DDOT": 0}, "tle": {"line1": "1 37712U 99025EMD 25348.65036769  .00001406  00000+0  47842-3 0  9997", "line2": "2 37712  98.8182 127.7109 0079125 347.9490  23.1022 14.36434035639882"}}, "geometry": {"type": "Point", "coordinates": [-45.58529827545844, 12.910588205265263]}}, {"type": "Feature", "properties": {"norad_id": 37714, "name": "FENGYUN 1C DEB", "group": "fengyun-1c-debris", "lat": -33.1272925260065, "lon": 110.93459554036934, "alt_km": 795.3159014687453, "timestamp": "2025-12-19T04:59:48.595407+00:00", "meta": {"OBJECT_NAME": "FENGYUN 1C DEB", "OBJECT_ID": "1999-025EMF", "EPOCH": "2025-12-17T02:51:19.662912", "MEAN_MOTION": 14.3227902, "ECCENTRICITY": 0.00479393, "INCLINATION": 98.8925, "RA_OF_ASC_NODE": 102.9292, "ARG_OF_PERICENTER": 71.5277, "MEAN_ANOMALY": 289.1107, "EPHEMERIS_TYPE": 0, "CLASSIFICATION_TYPE": "U", "NORAD_CAT_ID": 37714, "ELEMENT_SET_NO": 999, "REV_AT_EPOCH": 57572, "BSTAR": 0.0015552397, "MEAN_MOTION_DOT": 4.206e-05, "MEAN_MOTION_DDOT": 0}, "tle": {"line1": "1 37714U 99025EMF 25351.11897758  .00004206  00000+0  15552-2 0  9990", "line2": "2 37714  98.8925 102.9292 0047939  71.5277 289.1107 14.32279020575725"}}, "geometry": {"type": "Point", "coordinates": [110.93459554036934, -33.1272925260065]}}]}